{"type": "FeatureCollection", "features": [{"type": "Feature", "properties": {"Index": 2, "Name": "Messapians", "FromYear": -800.1, "ToYear": -317.2, "Area": 478.2, "Type": "TRIBAL_AREA", "References": "", "MemberOf": "", "ColorR": 224, "ColorG": 144, "ColorB": 96, "Generated": "2026-08-17", "SourceRun": "Messapians", "OverlapNote": "Contained in border: Iapygii, Messapii", "Kind": "dots"}, "geometry": {"type": "MultiPoint", "coordinates": [[16.9017, 40.7916], [17.631, 40.543], [18.2103, 40.2073]]}}, {"type": "Feature", "properties": {"Index": 3, "Name": "Messapians", "FromYear": -304.5, "ToYear": -295.3, "Area": 0.0, "Type": "TRIBAL_AREA", "References": "", "MemberOf": "", "ColorR": 224, "ColorG": 144, "ColorB": 96, "Generated": "2026-08-17", "SourceRun": "Messapians", "OverlapNote": "Contained in border: Iapygii, Messapii", "Kind": "dots"}, "geometry": {"type": "MultiPoint", "coordinates": [[16.9017, 40.7916], [17.631, 40.543]]}}, {"type": "Feature", "properties": {"Index": 4, "Name": "Messapians", "FromYear": -295.3, "ToYear": -280.4, "Area": 0.0, "Type": "TRIBAL_AREA", "References": "", "MemberOf": "", "ColorR": 224, "ColorG": 144, "ColorB": 96, "Generated": "2026-08-17", "SourceRun": "Messapians", "OverlapNote": "Contained in border: Iapygii, Messapii", "Kind": "dots"}, "geometry": {"type": "Point", "coordinates": [17.631, 40.543]}}, {"type": "Feature", "properties": {"Index": 5, "Name": "Sallentini", "FromYear": -304.5, "ToYear": -280.4, "Area": 0.0, "Type": "TRIBAL_AREA", "References": "", "MemberOf": "(Messapians)", "ColorR": 224, "ColorG": 144, "ColorB": 98, "Generated": "2026-08-17", "SourceRun": "Messapians", "OverlapNote": "", "Kind": "dots"}, "geometry": {"type": "Point", "coordinates": [18.2103, 40.2073]}}, {"type": "Feature", "properties": {"Index": 6, "Name": "Sallentini", "FromYear": -275.1, "ToYear": -267.5, "Area": 0.0, "Type": "TRIBAL_AREA", "References": "", "MemberOf": "(Messapians)", "ColorR": 224, "ColorG": 144, "ColorB": 98, "Generated": "2026-08-17", "SourceRun": "Messapians", "OverlapNote": "", "Kind": "dots"}, "geometry": {"type": "Point", "coordinates": [18.2103, 40.2073]}}, {"type": "Feature", "properties": {"Name": "Messapians", "FromYear": -800.1, "ToYear": -317.2, "Area": 478.2, "DotCount": 3, "Kind": "hull"}, "geometry": {"type": "Polygon", "coordinates": [[[16.9017, 40.7916], [17.631, 40.543], [18.2103, 40.2073], [16.9017, 40.7916]]]}}, {"type": "Feature", "properties": {"Index": 5, "Name": "Lucanians", "FromYear": -450.1, "ToYear": -438.5, "Area": 5075.7, "Type": "TRIBAL_AREA", "References": "", "MemberOf": "", "ColorR": 252, "ColorG": 160, "ColorB": 80, "Generated": "2026-08-17", "SourceRun": "Lucanians", "OverlapNote": "Contained in border: Lucani", "Kind": "dots"}, "geometry": {"type": "MultiPoint", "coordinates": [[16.0931, 39.8081], [15.35, 40.3206], [16.2965, 40.4122], [15.7224, 40.9093]]}}, {"type": "Feature", "properties": {"Index": 6, "Name": "Lucanians", "FromYear": -438.5, "ToYear": -436.5, "Area": 2618.5, "Type": "TRIBAL_AREA", "References": "", "MemberOf": "", "ColorR": 252, "ColorG": 160, "ColorB": 80, "Generated": "2026-08-17", "SourceRun": "Lucanians", "OverlapNote": "Contained in border: Lucani", "Kind": "dots"}, "geometry": {"type": "MultiPoint", "coordinates": [[16.0931, 39.8081], [15.35, 40.3206], [16.2965, 40.4122]]}}, {"type": "Feature", "properties": {"Name": "Lucanians", "FromYear": -450.1, "ToYear": -438.5, "Area": 5075.7, "DotCount": 4, "Kind": "hull"}, "geometry": {"type": "Polygon", "coordinates": [[[15.35, 40.3206], [15.7224, 40.9093], [16.2965, 40.4122], [16.0931, 39.8081], [15.35, 40.3206]]]}}, {"type": "Feature", "properties": {"Name": "Lucanians", "FromYear": -438.5, "ToYear": -436.5, "Area": 2618.5, "DotCount": 3, "Kind": "hull"}, "geometry": {"type": "Polygon", "coordinates": [[[15.35, 40.3206], [16.2965, 40.4122], [16.0931, 39.8081], [15.35, 40.3206]]]}}, {"type": "Feature", "properties": {"Index": 1, "Name": "Saharan Peoples", "FromYear": -2400.1, "ToYear": -2250.1, "Area": 7018690.6, "Type": "TRIBAL_AREA", "References": "", "MemberOf": "", "ColorR": 128, "ColorG": 112, "ColorB": 48, "Generated": "2026-08-17", "SourceRun": "Saharan Peoples", "OverlapNote": "Contained in border: Garamantes", "Kind": "dots"}, "geometry": {"type": "MultiPoint", "coordinates": [[3.25, 15.25], [2.25, 16.75], [4.25, 16.75], [1.25, 18.25], [3.25, 18.25], [0.25, 19.75], [2.25, 19.75], [4.25, 19.75], [5.25, 15.25], [7.25, 15.25], [9.25, 15.25], [6.25, 16.75], [8.25, 16.75], [5.25, 18.25], [7.25, 18.25], [9.25, 18.25], [6.25, 19.75], [8.25, 19.75], [11.25, 15.25], [13.25, 15.25], [10.25, 16.75], [12.25, 16.75], [14.25, 16.75], [11.25, 18.25], [13.25, 18.25], [10.25, 19.75], [12.25, 19.75], [14.25, 19.75], [15.25, 15.25], [17.25, 15.25], [19.25, 15.25], [16.25, 16.75], [18.25, 16.75], [15.25, 18.25], [17.25, 18.25], [19.25, 18.25], [16.25, 19.75], [18.25, 19.75], [21.25, 15.25], [23.25, 15.25], [20.25, 16.75], [22.25, 16.75], [24.25, 16.75], [21.25, 18.25], [23.25, 18.25], [20.25, 19.75], [22.25, 19.75], [24.25, 19.75], [25.25, 15.25], [27.25, 15.25], [29.25, 15.25], [26.25, 16.75], [28.25, 16.75], [25.25, 18.25], [27.25, 18.25], [29.25, 18.25], [26.25, 19.75], [28.25, 19.75], [-15.75, 19.75], [-14.75, 18.25], [-12.75, 18.25], [-10.75, 18.25], [-13.75, 19.75], [-11.75, 19.75], [-6.75, 15.25], [-7.75, 16.75], [-5.75, 16.75], [-8.75, 18.25], [-6.75, 18.25], [-9.75, 19.75], [-7.75, 19.75], [-5.75, 19.75], [-4.75, 18.25], [-2.75, 18.25], [-0.75, 18.25], [-3.75, 19.75], [-1.75, 19.75], [1.25, 21.25], [3.25, 21.25], [0.25, 22.75], [2.25, 22.75], [4.25, 22.75], [1.25, 24.25], [3.25, 24.25], [5.25, 21.25], [7.25, 21.25], [9.25, 21.25], [6.25, 22.75], [8.25, 22.75], [5.25, 24.25], [7.25, 24.25], [9.25, 24.25], [11.25, 21.25], [13.25, 21.25], [10.25, 22.75], [12.25, 22.75], [14.25, 22.75], [11.25, 24.25], [13.25, 24.25], [15.25, 21.25], [17.25, 21.25], [19.25, 21.25], [16.25, 22.75], [18.25, 22.75], [15.25, 24.25], [17.25, 24.25], [19.25, 24.25], [21.25, 21.25], [23.25, 21.25], [20.25, 22.75], [22.25, 22.75], [24.25, 22.75], [21.25, 24.25], [23.25, 24.25], [25.25, 21.25], [27.25, 21.25], [29.25, 21.25], [26.25, 22.75], [28.26, 22.75], [25.25, 24.25], [27.25, 24.25], [29.25, 24.25], [-15.75, 22.75], [-16.6, 21.25], [-14.75, 21.25], [-12.75, 21.25], [-10.75, 21.25], [-13.75, 22.75], [-11.75, 22.75], [-14.75, 24.25], [-12.75, 24.25], [-10.75, 24.25], [-8.75, 21.25], [-6.75, 21.25], [-9.75, 22.75], [-7.75, 22.75], [-5.75, 22.75], [-8.75, 24.25], [-6.75, 24.25], [-4.75, 21.25], [-2.75, 21.25], [-0.75, 21.25], [-3.75, 22.75], [-1.75, 22.75], [-4.75, 24.25], [-2.75, 24.25], [-0.75, 24.25], [0.25, 25.75], [2.25, 25.75], [4.25, 25.75], [1.25, 27.25], [3.25, 27.25], [0.25, 28.75], [2.25, 28.75], [4.25, 28.75], [6.25, 25.75], [8.25, 25.75], [5.25, 27.25], [7.25, 27.25], [9.25, 27.25], [6.25, 28.75], [8.25, 28.75], [10.25, 25.75], [12.25, 25.75], [14.25, 25.75], [11.25, 27.25], [13.25, 27.25], [10.25, 28.75], [12.25, 28.75], [14.25, 28.75], [16.25, 25.75], [18.25, 25.75], [15.25, 27.25], [17.25, 27.25], [19.25, 27.25], [16.25, 28.75], [18.25, 28.75], [20.25, 25.75], [22.25, 25.75], [24.25, 25.75], [21.25, 27.25], [23.25, 27.25], [20.25, 28.75], [22.25, 28.75], [24.25, 28.75], [26.25, 28.75], [25.25, 27.25], [26.25, 25.75], [28.25, 25.75], [27.25, 27.25], [-13.75, 25.75], [-11.75, 25.75], [-12.75, 27.25], [-10.75, 27.25], [-9.75, 25.75], [-7.75, 25.75], [-5.75, 25.75], [-8.75, 27.25], [-6.75, 27.25], [-7.75, 28.75], [-5.75, 28.75], [-3.75, 25.75], [-1.75, 25.75], [-4.75, 27.25], [-2.75, 27.25], [-0.75, 27.25], [-3.75, 28.75], [-1.75, 28.75], [1.25, 30.25], [3.25, 30.25], [0.25, 31.75], [2.25, 31.75], [4.25, 31.75], [3.25, 33.25], [1.25, 33.25], [5.25, 30.25], [7.25, 30.25], [9.25, 30.25], [6.25, 31.75], [8.25, 31.75], [5.25, 33.25], [7.25, 33.25], [9.25, 33.25], [11.25, 30.25], [23.25, 30.25], [25.25, 30.25], [-2.75, 30.25], [-0.75, 30.25], [-1.75, 31.75], [-4.75, 30.25]]}}, {"type": "Feature", "properties": {"Index": 2, "Name": "Saharan Peoples", "FromYear": -2250.1, "ToYear": -524.5, "Area": 6787733.5, "Type": "TRIBAL_AREA", "References": "", "MemberOf": "", "ColorR": 128, "ColorG": 112, "ColorB": 48, "Generated": "2026-08-17", "SourceRun": "Saharan Peoples", "OverlapNote": "Contained in border: Garamantes", "Kind": "dots"}, "geometry": {"type": "MultiPoint", "coordinates": [[3.25, 15.25], [2.25, 16.75], [4.25, 16.75], [1.25, 18.25], [3.25, 18.25], [0.25, 19.75], [2.25, 19.75], [4.25, 19.75], [6.25, 16.75], [8.25, 16.75], [5.25, 18.25], [7.25, 18.25], [9.25, 18.25], [6.25, 19.75], [8.25, 19.75], [10.25, 16.75], [12.25, 16.75], [14.25, 16.75], [11.25, 18.25], [13.25, 18.25], [10.25, 19.75], [12.25, 19.75], [14.25, 19.75], [16.25, 16.75], [18.25, 16.75], [15.25, 18.25], [17.25, 18.25], [19.25, 18.25], [16.25, 19.75], [18.25, 19.75], [21.25, 15.25], [23.25, 15.25], [20.25, 16.75], [22.25, 16.75], [24.25, 16.75], [21.25, 18.25], [23.25, 18.25], [20.25, 19.75], [22.25, 19.75], [24.25, 19.75], [25.25, 15.25], [27.25, 15.25], [29.25, 15.25], [26.25, 16.75], [28.25, 16.75], [25.25, 18.25], [27.25, 18.25], [29.25, 18.25], [26.25, 19.75], [28.25, 19.75], [-15.75, 19.75], [-14.75, 18.25], [-12.75, 18.25], [-10.75, 18.25], [-13.75, 19.75], [-11.75, 19.75], [-6.75, 15.25], [-7.75, 16.75], [-5.75, 16.75], [-8.75, 18.25], [-6.75, 18.25], [-9.75, 19.75], [-7.75, 19.75], [-5.75, 19.75], [-4.75, 18.25], [-2.75, 18.25], [-0.75, 18.25], [-3.75, 19.75], [-1.75, 19.75], [1.25, 21.25], [3.25, 21.25], [0.25, 22.75], [2.25, 22.75], [4.25, 22.75], [1.25, 24.25], [3.25, 24.25], [5.25, 21.25], [7.25, 21.25], [9.25, 21.25], [6.25, 22.75], [8.25, 22.75], [5.25, 24.25], [7.25, 24.25], [9.25, 24.25], [11.25, 21.25], [13.25, 21.25], [10.25, 22.75], [12.25, 22.75], [14.25, 22.75], [11.25, 24.25], [13.25, 24.25], [15.25, 21.25], [17.25, 21.25], [19.25, 21.25], [16.25, 22.75], [18.25, 22.75], [15.25, 24.25], [17.25, 24.25], [19.25, 24.25], [21.25, 21.25], [23.25, 21.25], [20.25, 22.75], [22.25, 22.75], [24.25, 22.75], [21.25, 24.25], [23.25, 24.25], [25.25, 21.25], [27.25, 21.25], [29.25, 21.25], [26.25, 22.75], [28.26, 22.75], [25.25, 24.25], [27.25, 24.25], [29.25, 24.25], [-15.75, 22.75], [-16.6, 21.25], [-14.75, 21.25], [-12.75, 21.25], [-10.75, 21.25], [-13.75, 22.75], [-11.75, 22.75], [-14.75, 24.25], [-12.75, 24.25], [-10.75, 24.25], [-8.75, 21.25], [-6.75, 21.25], [-9.75, 22.75], [-7.75, 22.75], [-5.75, 22.75], [-8.75, 24.25], [-6.75, 24.25], [-4.75, 21.25], [-2.75, 21.25], [-0.75, 21.25], [-3.75, 22.75], [-1.75, 22.75], [-4.75, 24.25], [-2.75, 24.25], [-0.75, 24.25], [0.25, 25.75], [2.25, 25.75], [4.25, 25.75], [1.25, 27.25], [3.25, 27.25], [0.25, 28.75], [2.25, 28.75], [4.25, 28.75], [6.25, 25.75], [8.25, 25.75], [5.25, 27.25], [7.25, 27.25], [9.25, 27.25], [6.25, 28.75], [8.25, 28.75], [10.25, 25.75], [12.25, 25.75], [14.25, 25.75], [11.25, 27.25], [13.25, 27.25], [10.25, 28.75], [12.25, 28.75], [14.25, 28.75], [16.25, 25.75], [18.25, 25.75], [15.25, 27.25], [17.25, 27.25], [19.25, 27.25], [16.25, 28.75], [18.25, 28.75], [20.25, 25.75], [22.25, 25.75], [24.25, 25.75], [21.25, 27.25], [23.25, 27.25], [20.25, 28.75], [22.25, 28.75], [24.25, 28.75], [26.25, 28.75], [25.25, 27.25], [26.25, 25.75], [28.25, 25.75], [27.25, 27.25], [-13.75, 25.75], [-11.75, 25.75], [-12.75, 27.25], [-10.75, 27.25], [-9.75, 25.75], [-7.75, 25.75], [-5.75, 25.75], [-8.75, 27.25], [-6.75, 27.25], [-7.75, 28.75], [-5.75, 28.75], [-3.75, 25.75], [-1.75, 25.75], [-4.75, 27.25], [-2.75, 27.25], [-0.75, 27.25], [-3.75, 28.75], [-1.75, 28.75], [1.25, 30.25], [3.25, 30.25], [0.25, 31.75], [2.25, 31.75], [4.25, 31.75], [3.25, 33.25], [1.25, 33.25], [5.25, 30.25], [7.25, 30.25], [9.25, 30.25], [6.25, 31.75], [8.25, 31.75], [5.25, 33.25], [7.25, 33.25], [9.25, 33.25], [11.25, 30.25], [23.25, 30.25], [25.25, 30.25], [-2.75, 30.25], [-0.75, 30.25], [-1.75, 31.75], [-4.75, 30.25]]}}, {"type": "Feature", "properties": {"Index": 3, "Name": "Saharan Peoples", "FromYear": -524.5, "ToYear": -515.5, "Area": 6787619.3, "Type": "TRIBAL_AREA", "References": "", "MemberOf": "", "ColorR": 128, "ColorG": 112, "ColorB": 48, "Generated": "2026-08-17", "SourceRun": "Saharan Peoples", "OverlapNote": "Contained in border: Garamantes", "Kind": "dots"}, "geometry": {"type": "MultiPoint", "coordinates": [[3.25, 15.25], [2.25, 16.75], [4.25, 16.75], [1.25, 18.25], [3.25, 18.25], [0.25, 19.75], [2.25, 19.75], [4.25, 19.75], [6.25, 16.75], [8.25, 16.75], [5.25, 18.25], [7.25, 18.25], [9.25, 18.25], [6.25, 19.75], [8.25, 19.75], [10.25, 16.75], [12.25, 16.75], [14.25, 16.75], [11.25, 18.25], [13.25, 18.25], [10.25, 19.75], [12.25, 19.75], [14.25, 19.75], [16.25, 16.75], [18.25, 16.75], [15.25, 18.25], [17.25, 18.25], [19.25, 18.25], [16.25, 19.75], [18.25, 19.75], [21.25, 15.25], [23.25, 15.25], [20.25, 16.75], [22.25, 16.75], [24.25, 16.75], [21.25, 18.25], [23.25, 18.25], [20.25, 19.75], [22.25, 19.75], [24.25, 19.75], [25.25, 15.25], [27.25, 15.25], [29.25, 15.25], [26.25, 16.75], [28.25, 16.75], [25.25, 18.25], [27.25, 18.25], [29.25, 18.25], [26.25, 19.75], [28.25, 19.75], [-15.75, 19.75], [-14.75, 18.25], [-12.75, 18.25], [-10.75, 18.25], [-13.75, 19.75], [-11.75, 19.75], [-6.75, 15.25], [-7.75, 16.75], [-5.75, 16.75], [-8.75, 18.25], [-6.75, 18.25], [-9.75, 19.75], [-7.75, 19.75], [-5.75, 19.75], [-4.75, 18.25], [-2.75, 18.25], [-0.75, 18.25], [-3.75, 19.75], [-1.75, 19.75], [1.25, 21.25], [3.25, 21.25], [0.25, 22.75], [2.25, 22.75], [4.25, 22.75], [1.25, 24.25], [3.25, 24.25], [5.25, 21.25], [7.25, 21.25], [9.25, 21.25], [6.25, 22.75], [8.25, 22.75], [5.25, 24.25], [7.25, 24.25], [9.25, 24.25], [11.25, 21.25], [13.25, 21.25], [10.25, 22.75], [12.25, 22.75], [14.25, 22.75], [11.25, 24.25], [13.25, 24.25], [15.25, 21.25], [17.25, 21.25], [19.25, 21.25], [16.25, 22.75], [18.25, 22.75], [15.25, 24.25], [17.25, 24.25], [19.25, 24.25], [21.25, 21.25], [23.25, 21.25], [20.25, 22.75], [22.25, 22.75], [24.25, 22.75], [21.25, 24.25], [23.25, 24.25], [25.25, 21.25], [27.25, 21.25], [29.25, 21.25], [26.25, 22.75], [28.26, 22.75], [25.25, 24.25], [27.25, 24.25], [29.25, 24.25], [-15.75, 22.75], [-16.6, 21.25], [-14.75, 21.25], [-12.75, 21.25], [-10.75, 21.25], [-13.75, 22.75], [-11.75, 22.75], [-14.75, 24.25], [-12.75, 24.25], [-10.75, 24.25], [-8.75, 21.25], [-6.75, 21.25], [-9.75, 22.75], [-7.75, 22.75], [-5.75, 22.75], [-8.75, 24.25], [-6.75, 24.25], [-4.75, 21.25], [-2.75, 21.25], [-0.75, 21.25], [-3.75, 22.75], [-1.75, 22.75], [-4.75, 24.25], [-2.75, 24.25], [-0.75, 24.25], [0.25, 25.75], [2.25, 25.75], [4.25, 25.75], [1.25, 27.25], [3.25, 27.25], [0.25, 28.75], [2.25, 28.75], [4.25, 28.75], [6.25, 25.75], [8.25, 25.75], [5.25, 27.25], [7.25, 27.25], [9.25, 27.25], [6.25, 28.75], [8.25, 28.75], [10.25, 25.75], [12.25, 25.75], [14.25, 25.75], [11.25, 27.25], [13.25, 27.25], [10.25, 28.75], [12.25, 28.75], [14.25, 28.75], [16.25, 25.75], [18.25, 25.75], [15.25, 27.25], [17.25, 27.25], [19.25, 27.25], [16.25, 28.75], [18.25, 28.75], [20.25, 25.75], [22.25, 25.75], [24.25, 25.75], [21.25, 27.25], [23.25, 27.25], [20.25, 28.75], [22.25, 28.75], [24.25, 28.75], [25.25, 27.25], [26.25, 25.75], [28.25, 25.75], [27.25, 27.25], [-13.75, 25.75], [-11.75, 25.75], [-12.75, 27.25], [-10.75, 27.25], [-9.75, 25.75], [-7.75, 25.75], [-5.75, 25.75], [-8.75, 27.25], [-6.75, 27.25], [-7.75, 28.75], [-5.75, 28.75], [-3.75, 25.75], [-1.75, 25.75], [-4.75, 27.25], [-2.75, 27.25], [-0.75, 27.25], [-3.75, 28.75], [-1.75, 28.75], [1.25, 30.25], [3.25, 30.25], [0.25, 31.75], [2.25, 31.75], [4.25, 31.75], [3.25, 33.25], [1.25, 33.25], [5.25, 30.25], [7.25, 30.25], [9.25, 30.25], [6.25, 31.75], [8.25, 31.75], [5.25, 33.25], [7.25, 33.25], [9.25, 33.25], [11.25, 30.25], [23.25, 30.25], [25.25, 30.25], [-2.75, 30.25], [-0.75, 30.25], [-1.75, 31.75], [-4.75, 30.25]]}}, {"type": "Feature", "properties": {"Index": 4, "Name": "Saharan Peoples", "FromYear": -515.5, "ToYear": -440.5, "Area": 6755147.4, "Type": "TRIBAL_AREA", "References": "", "MemberOf": "", "ColorR": 128, "ColorG": 112, "ColorB": 48, "Generated": "2026-08-17", "SourceRun": "Saharan Peoples", "OverlapNote": "Contained in border: Garamantes", "Kind": "dots"}, "geometry": {"type": "MultiPoint", "coordinates": [[3.25, 15.25], [2.25, 16.75], [4.25, 16.75], [1.25, 18.25], [3.25, 18.25], [0.25, 19.75], [2.25, 19.75], [4.25, 19.75], [6.25, 16.75], [8.25, 16.75], [5.25, 18.25], [7.25, 18.25], [9.25, 18.25], [6.25, 19.75], [8.25, 19.75], [10.25, 16.75], [12.25, 16.75], [14.25, 16.75], [11.25, 18.25], [13.25, 18.25], [10.25, 19.75], [12.25, 19.75], [14.25, 19.75], [16.25, 16.75], [18.25, 16.75], [15.25, 18.25], [17.25, 18.25], [19.25, 18.25], [16.25, 19.75], [18.25, 19.75], [21.25, 15.25], [23.25, 15.25], [20.25, 16.75], [22.25, 16.75], [24.25, 16.75], [21.25, 18.25], [23.25, 18.25], [20.25, 19.75], [22.25, 19.75], [24.25, 19.75], [25.25, 15.25], [27.25, 15.25], [29.25, 15.25], [26.25, 16.75], [28.25, 16.75], [25.25, 18.25], [27.25, 18.25], [29.25, 18.25], [26.25, 19.75], [28.25, 19.75], [-15.75, 19.75], [-14.75, 18.25], [-12.75, 18.25], [-10.75, 18.25], [-13.75, 19.75], [-11.75, 19.75], [-6.75, 15.25], [-7.75, 16.75], [-5.75, 16.75], [-8.75, 18.25], [-6.75, 18.25], [-9.75, 19.75], [-7.75, 19.75], [-5.75, 19.75], [-4.75, 18.25], [-2.75, 18.25], [-0.75, 18.25], [-3.75, 19.75], [-1.75, 19.75], [1.25, 21.25], [3.25, 21.25], [0.25, 22.75], [2.25, 22.75], [4.25, 22.75], [1.25, 24.25], [3.25, 24.25], [5.25, 21.25], [7.25, 21.25], [9.25, 21.25], [6.25, 22.75], [8.25, 22.75], [5.25, 24.25], [7.25, 24.25], [9.25, 24.25], [11.25, 21.25], [13.25, 21.25], [10.25, 22.75], [12.25, 22.75], [14.25, 22.75], [11.25, 24.25], [13.25, 24.25], [15.25, 21.25], [17.25, 21.25], [19.25, 21.25], [16.25, 22.75], [18.25, 22.75], [15.25, 24.25], [17.25, 24.25], [19.25, 24.25], [21.25, 21.25], [23.25, 21.25], [20.25, 22.75], [22.25, 22.75], [24.25, 22.75], [21.25, 24.25], [23.25, 24.25], [25.25, 21.25], [27.25, 21.25], [29.25, 21.25], [26.25, 22.75], [28.26, 22.75], [25.25, 24.25], [27.25, 24.25], [29.25, 24.25], [-15.75, 22.75], [-16.6, 21.25], [-14.75, 21.25], [-12.75, 21.25], [-10.75, 21.25], [-13.75, 22.75], [-11.75, 22.75], [-14.75, 24.25], [-12.75, 24.25], [-10.75, 24.25], [-8.75, 21.25], [-6.75, 21.25], [-9.75, 22.75], [-7.75, 22.75], [-5.75, 22.75], [-8.75, 24.25], [-6.75, 24.25], [-4.75, 21.25], [-2.75, 21.25], [-0.75, 21.25], [-3.75, 22.75], [-1.75, 22.75], [-4.75, 24.25], [-2.75, 24.25], [-0.75, 24.25], [0.25, 25.75], [2.25, 25.75], [4.25, 25.75], [1.25, 27.25], [3.25, 27.25], [0.25, 28.75], [2.25, 28.75], [4.25, 28.75], [6.25, 25.75], [8.25, 25.75], [5.25, 27.25], [7.25, 27.25], [9.25, 27.25], [6.25, 28.75], [8.25, 28.75], [10.25, 25.75], [12.25, 25.75], [14.25, 25.75], [11.25, 27.25], [13.25, 27.25], [10.25, 28.75], [12.25, 28.75], [14.25, 28.75], [16.25, 25.75], [18.25, 25.75], [15.25, 27.25], [17.25, 27.25], [19.25, 27.25], [16.25, 28.75], [18.25, 28.75], [20.25, 25.75], [22.25, 25.75], [24.25, 25.75], [21.25, 27.25], [23.25, 27.25], [20.25, 28.75], [22.25, 28.75], [24.25, 28.75], [25.25, 27.25], [26.25, 25.75], [28.25, 25.75], [27.25, 27.25], [-13.75, 25.75], [-11.75, 25.75], [-12.75, 27.25], [-10.75, 27.25], [-9.75, 25.75], [-7.75, 25.75], [-5.75, 25.75], [-8.75, 27.25], [-6.75, 27.25], [-7.75, 28.75], [-5.75, 28.75], [-3.75, 25.75], [-1.75, 25.75], [-4.75, 27.25], [-2.75, 27.25], [-0.75, 27.25], [-3.75, 28.75], [-1.75, 28.75], [1.25, 30.25], [3.25, 30.25], [0.25, 31.75], [2.25, 31.75], [4.25, 31.75], [3.25, 33.25], [1.25, 33.25], [5.25, 30.25], [7.25, 30.25], [9.25, 30.25], [6.25, 31.75], [8.25, 31.75], [5.25, 33.25], [7.25, 33.25], [9.25, 33.25], [11.25, 30.25], [23.25, 30.25], [-2.75, 30.25], [-0.75, 30.25], [-1.75, 31.75], [-4.75, 30.25]]}}, {"type": "Feature", "properties": {"Index": 5, "Name": "Saharan Peoples", "FromYear": -440.5, "ToYear": -402.5, "Area": 6787619.3, "Type": "TRIBAL_AREA", "References": "", "MemberOf": "", "ColorR": 128, "ColorG": 112, "ColorB": 48, "Generated": "2026-08-17", "SourceRun": "Saharan Peoples", "OverlapNote": "Contained in border: Garamantes", "Kind": "dots"}, "geometry": {"type": "MultiPoint", "coordinates": [[3.25, 15.25], [2.25, 16.75], [4.25, 16.75], [1.25, 18.25], [3.25, 18.25], [0.25, 19.75], [2.25, 19.75], [4.25, 19.75], [6.25, 16.75], [8.25, 16.75], [5.25, 18.25], [7.25, 18.25], [9.25, 18.25], [6.25, 19.75], [8.25, 19.75], [10.25, 16.75], [12.25, 16.75], [14.25, 16.75], [11.25, 18.25], [13.25, 18.25], [10.25, 19.75], [12.25, 19.75], [14.25, 19.75], [16.25, 16.75], [18.25, 16.75], [15.25, 18.25], [17.25, 18.25], [19.25, 18.25], [16.25, 19.75], [18.25, 19.75], [21.25, 15.25], [23.25, 15.25], [20.25, 16.75], [22.25, 16.75], [24.25, 16.75], [21.25, 18.25], [23.25, 18.25], [20.25, 19.75], [22.25, 19.75], [24.25, 19.75], [25.25, 15.25], [27.25, 15.25], [29.25, 15.25], [26.25, 16.75], [28.25, 16.75], [25.25, 18.25], [27.25, 18.25], [29.25, 18.25], [26.25, 19.75], [28.25, 19.75], [-15.75, 19.75], [-14.75, 18.25], [-12.75, 18.25], [-10.75, 18.25], [-13.75, 19.75], [-11.75, 19.75], [-6.75, 15.25], [-7.75, 16.75], [-5.75, 16.75], [-8.75, 18.25], [-6.75, 18.25], [-9.75, 19.75], [-7.75, 19.75], [-5.75, 19.75], [-4.75, 18.25], [-2.75, 18.25], [-0.75, 18.25], [-3.75, 19.75], [-1.75, 19.75], [1.25, 21.25], [3.25, 21.25], [0.25, 22.75], [2.25, 22.75], [4.25, 22.75], [1.25, 24.25], [3.25, 24.25], [5.25, 21.25], [7.25, 21.25], [9.25, 21.25], [6.25, 22.75], [8.25, 22.75], [5.25, 24.25], [7.25, 24.25], [9.25, 24.25], [11.25, 21.25], [13.25, 21.25], [10.25, 22.75], [12.25, 22.75], [14.25, 22.75], [11.25, 24.25], [13.25, 24.25], [15.25, 21.25], [17.25, 21.25], [19.25, 21.25], [16.25, 22.75], [18.25, 22.75], [15.25, 24.25], [17.25, 24.25], [19.25, 24.25], [21.25, 21.25], [23.25, 21.25], [20.25, 22.75], [22.25, 22.75], [24.25, 22.75], [21.25, 24.25], [23.25, 24.25], [25.25, 21.25], [27.25, 21.25], [29.25, 21.25], [26.25, 22.75], [28.26, 22.75], [25.25, 24.25], [27.25, 24.25], [29.25, 24.25], [-15.75, 22.75], [-16.6, 21.25], [-14.75, 21.25], [-12.75, 21.25], [-10.75, 21.25], [-13.75, 22.75], [-11.75, 22.75], [-14.75, 24.25], [-12.75, 24.25], [-10.75, 24.25], [-8.75, 21.25], [-6.75, 21.25], [-9.75, 22.75], [-7.75, 22.75], [-5.75, 22.75], [-8.75, 24.25], [-6.75, 24.25], [-4.75, 21.25], [-2.75, 21.25], [-0.75, 21.25], [-3.75, 22.75], [-1.75, 22.75], [-4.75, 24.25], [-2.75, 24.25], [-0.75, 24.25], [0.25, 25.75], [2.25, 25.75], [4.25, 25.75], [1.25, 27.25], [3.25, 27.25], [0.25, 28.75], [2.25, 28.75], [4.25, 28.75], [6.25, 25.75], [8.25, 25.75], [5.25, 27.25], [7.25, 27.25], [9.25, 27.25], [6.25, 28.75], [8.25, 28.75], [10.25, 25.75], [12.25, 25.75], [14.25, 25.75], [11.25, 27.25], [13.25, 27.25], [10.25, 28.75], [12.25, 28.75], [14.25, 28.75], [16.25, 25.75], [18.25, 25.75], [15.25, 27.25], [17.25, 27.25], [19.25, 27.25], [16.25, 28.75], [18.25, 28.75], [20.25, 25.75], [22.25, 25.75], [24.25, 25.75], [21.25, 27.25], [23.25, 27.25], [20.25, 28.75], [22.25, 28.75], [24.25, 28.75], [25.25, 27.25], [26.25, 25.75], [28.25, 25.75], [27.25, 27.25], [-13.75, 25.75], [-11.75, 25.75], [-12.75, 27.25], [-10.75, 27.25], [-9.75, 25.75], [-7.75, 25.75], [-5.75, 25.75], [-8.75, 27.25], [-6.75, 27.25], [-7.75, 28.75], [-5.75, 28.75], [-3.75, 25.75], [-1.75, 25.75], [-4.75, 27.25], [-2.75, 27.25], [-0.75, 27.25], [-3.75, 28.75], [-1.75, 28.75], [1.25, 30.25], [3.25, 30.25], [0.25, 31.75], [2.25, 31.75], [4.25, 31.75], [3.25, 33.25], [1.25, 33.25], [5.25, 30.25], [7.25, 30.25], [9.25, 30.25], [6.25, 31.75], [8.25, 31.75], [5.25, 33.25], [7.25, 33.25], [9.25, 33.25], [11.25, 30.25], [23.25, 30.25], [25.25, 30.25], [-2.75, 30.25], [-0.75, 30.25], [-1.75, 31.75], [-4.75, 30.25]]}}, {"type": "Feature", "properties": {"Index": 6, "Name": "Saharan Peoples", "FromYear": -402.5, "ToYear": -331.6, "Area": 6787733.5, "Type": "TRIBAL_AREA", "References": "", "MemberOf": "", "ColorR": 128, "ColorG": 112, "ColorB": 48, "Generated": "2026-08-17", "SourceRun": "Saharan Peoples", "OverlapNote": "Contained in border: Garamantes", "Kind": "dots"}, "geometry": {"type": "MultiPoint", "coordinates": [[3.25, 15.25], [2.25, 16.75], [4.25, 16.75], [1.25, 18.25], [3.25, 18.25], [0.25, 19.75], [2.25, 19.75], [4.25, 19.75], [6.25, 16.75], [8.25, 16.75], [5.25, 18.25], [7.25, 18.25], [9.25, 18.25], [6.25, 19.75], [8.25, 19.75], [10.25, 16.75], [12.25, 16.75], [14.25, 16.75], [11.25, 18.25], [13.25, 18.25], [10.25, 19.75], [12.25, 19.75], [14.25, 19.75], [16.25, 16.75], [18.25, 16.75], [15.25, 18.25], [17.25, 18.25], [19.25, 18.25], [16.25, 19.75], [18.25, 19.75], [21.25, 15.25], [23.25, 15.25], [20.25, 16.75], [22.25, 16.75], [24.25, 16.75], [21.25, 18.25], [23.25, 18.25], [20.25, 19.75], [22.25, 19.75], [24.25, 19.75], [25.25, 15.25], [27.25, 15.25], [29.25, 15.25], [26.25, 16.75], [28.25, 16.75], [25.25, 18.25], [27.25, 18.25], [29.25, 18.25], [26.25, 19.75], [28.25, 19.75], [-15.75, 19.75], [-14.75, 18.25], [-12.75, 18.25], [-10.75, 18.25], [-13.75, 19.75], [-11.75, 19.75], [-6.75, 15.25], [-7.75, 16.75], [-5.75, 16.75], [-8.75, 18.25], [-6.75, 18.25], [-9.75, 19.75], [-7.75, 19.75], [-5.75, 19.75], [-4.75, 18.25], [-2.75, 18.25], [-0.75, 18.25], [-3.75, 19.75], [-1.75, 19.75], [1.25, 21.25], [3.25, 21.25], [0.25, 22.75], [2.25, 22.75], [4.25, 22.75], [1.25, 24.25], [3.25, 24.25], [5.25, 21.25], [7.25, 21.25], [9.25, 21.25], [6.25, 22.75], [8.25, 22.75], [5.25, 24.25], [7.25, 24.25], [9.25, 24.25], [11.25, 21.25], [13.25, 21.25], [10.25, 22.75], [12.25, 22.75], [14.25, 22.75], [11.25, 24.25], [13.25, 24.25], [15.25, 21.25], [17.25, 21.25], [19.25, 21.25], [16.25, 22.75], [18.25, 22.75], [15.25, 24.25], [17.25, 24.25], [19.25, 24.25], [21.25, 21.25], [23.25, 21.25], [20.25, 22.75], [22.25, 22.75], [24.25, 22.75], [21.25, 24.25], [23.25, 24.25], [25.25, 21.25], [27.25, 21.25], [29.25, 21.25], [26.25, 22.75], [28.26, 22.75], [25.25, 24.25], [27.25, 24.25], [29.25, 24.25], [-15.75, 22.75], [-16.6, 21.25], [-14.75, 21.25], [-12.75, 21.25], [-10.75, 21.25], [-13.75, 22.75], [-11.75, 22.75], [-14.75, 24.25], [-12.75, 24.25], [-10.75, 24.25], [-8.75, 21.25], [-6.75, 21.25], [-9.75, 22.75], [-7.75, 22.75], [-5.75, 22.75], [-8.75, 24.25], [-6.75, 24.25], [-4.75, 21.25], [-2.75, 21.25], [-0.75, 21.25], [-3.75, 22.75], [-1.75, 22.75], [-4.75, 24.25], [-2.75, 24.25], [-0.75, 24.25], [0.25, 25.75], [2.25, 25.75], [4.25, 25.75], [1.25, 27.25], [3.25, 27.25], [0.25, 28.75], [2.25, 28.75], [4.25, 28.75], [6.25, 25.75], [8.25, 25.75], [5.25, 27.25], [7.25, 27.25], [9.25, 27.25], [6.25, 28.75], [8.25, 28.75], [10.25, 25.75], [12.25, 25.75], [14.25, 25.75], [11.25, 27.25], [13.25, 27.25], [10.25, 28.75], [12.25, 28.75], [14.25, 28.75], [16.25, 25.75], [18.25, 25.75], [15.25, 27.25], [17.25, 27.25], [19.25, 27.25], [16.25, 28.75], [18.25, 28.75], [20.25, 25.75], [22.25, 25.75], [24.25, 25.75], [21.25, 27.25], [23.25, 27.25], [20.25, 28.75], [22.25, 28.75], [24.25, 28.75], [26.25, 28.75], [25.25, 27.25], [26.25, 25.75], [28.25, 25.75], [27.25, 27.25], [-13.75, 25.75], [-11.75, 25.75], [-12.75, 27.25], [-10.75, 27.25], [-9.75, 25.75], [-7.75, 25.75], [-5.75, 25.75], [-8.75, 27.25], [-6.75, 27.25], [-7.75, 28.75], [-5.75, 28.75], [-3.75, 25.75], [-1.75, 25.75], [-4.75, 27.25], [-2.75, 27.25], [-0.75, 27.25], [-3.75, 28.75], [-1.75, 28.75], [1.25, 30.25], [3.25, 30.25], [0.25, 31.75], [2.25, 31.75], [4.25, 31.75], [3.25, 33.25], [1.25, 33.25], [5.25, 30.25], [7.25, 30.25], [9.25, 30.25], [6.25, 31.75], [8.25, 31.75], [5.25, 33.25], [7.25, 33.25], [9.25, 33.25], [11.25, 30.25], [23.25, 30.25], [25.25, 30.25], [-2.75, 30.25], [-0.75, 30.25], [-1.75, 31.75], [-4.75, 30.25]]}}, {"type": "Feature", "properties": {"Index": 7, "Name": "Saharan Peoples", "FromYear": -331.6, "ToYear": -1.0, "Area": 6787619.3, "Type": "TRIBAL_AREA", "References": "", "MemberOf": "", "ColorR": 128, "ColorG": 112, "ColorB": 48, "Generated": "2026-08-17", "SourceRun": "Saharan Peoples", "OverlapNote": "Contained in border: Garamantes", "Kind": "dots"}, "geometry": {"type": "MultiPoint", "coordinates": [[3.25, 15.25], [2.25, 16.75], [4.25, 16.75], [1.25, 18.25], [3.25, 18.25], [0.25, 19.75], [2.25, 19.75], [4.25, 19.75], [6.25, 16.75], [8.25, 16.75], [5.25, 18.25], [7.25, 18.25], [9.25, 18.25], [6.25, 19.75], [8.25, 19.75], [10.25, 16.75], [12.25, 16.75], [14.25, 16.75], [11.25, 18.25], [13.25, 18.25], [10.25, 19.75], [12.25, 19.75], [14.25, 19.75], [16.25, 16.75], [18.25, 16.75], [15.25, 18.25], [17.25, 18.25], [19.25, 18.25], [16.25, 19.75], [18.25, 19.75], [21.25, 15.25], [23.25, 15.25], [20.25, 16.75], [22.25, 16.75], [24.25, 16.75], [21.25, 18.25], [23.25, 18.25], [20.25, 19.75], [22.25, 19.75], [24.25, 19.75], [25.25, 15.25], [27.25, 15.25], [29.25, 15.25], [26.25, 16.75], [28.25, 16.75], [25.25, 18.25], [27.25, 18.25], [29.25, 18.25], [26.25, 19.75], [28.25, 19.75], [-15.75, 19.75], [-14.75, 18.25], [-12.75, 18.25], [-10.75, 18.25], [-13.75, 19.75], [-11.75, 19.75], [-6.75, 15.25], [-7.75, 16.75], [-5.75, 16.75], [-8.75, 18.25], [-6.75, 18.25], [-9.75, 19.75], [-7.75, 19.75], [-5.75, 19.75], [-4.75, 18.25], [-2.75, 18.25], [-0.75, 18.25], [-3.75, 19.75], [-1.75, 19.75], [1.25, 21.25], [3.25, 21.25], [0.25, 22.75], [2.25, 22.75], [4.25, 22.75], [1.25, 24.25], [3.25, 24.25], [5.25, 21.25], [7.25, 21.25], [9.25, 21.25], [6.25, 22.75], [8.25, 22.75], [5.25, 24.25], [7.25, 24.25], [9.25, 24.25], [11.25, 21.25], [13.25, 21.25], [10.25, 22.75], [12.25, 22.75], [14.25, 22.75], [11.25, 24.25], [13.25, 24.25], [15.25, 21.25], [17.25, 21.25], [19.25, 21.25], [16.25, 22.75], [18.25, 22.75], [15.25, 24.25], [17.25, 24.25], [19.25, 24.25], [21.25, 21.25], [23.25, 21.25], [20.25, 22.75], [22.25, 22.75], [24.25, 22.75], [21.25, 24.25], [23.25, 24.25], [25.25, 21.25], [27.25, 21.25], [29.25, 21.25], [26.25, 22.75], [28.26, 22.75], [25.25, 24.25], [27.25, 24.25], [29.25, 24.25], [-15.75, 22.75], [-16.6, 21.25], [-14.75, 21.25], [-12.75, 21.25], [-10.75, 21.25], [-13.75, 22.75], [-11.75, 22.75], [-14.75, 24.25], [-12.75, 24.25], [-10.75, 24.25], [-8.75, 21.25], [-6.75, 21.25], [-9.75, 22.75], [-7.75, 22.75], [-5.75, 22.75], [-8.75, 24.25], [-6.75, 24.25], [-4.75, 21.25], [-2.75, 21.25], [-0.75, 21.25], [-3.75, 22.75], [-1.75, 22.75], [-4.75, 24.25], [-2.75, 24.25], [-0.75, 24.25], [0.25, 25.75], [2.25, 25.75], [4.25, 25.75], [1.25, 27.25], [3.25, 27.25], [0.25, 28.75], [2.25, 28.75], [4.25, 28.75], [6.25, 25.75], [8.25, 25.75], [5.25, 27.25], [7.25, 27.25], [9.25, 27.25], [6.25, 28.75], [8.25, 28.75], [10.25, 25.75], [12.25, 25.75], [14.25, 25.75], [11.25, 27.25], [13.25, 27.25], [10.25, 28.75], [12.25, 28.75], [14.25, 28.75], [16.25, 25.75], [18.25, 25.75], [15.25, 27.25], [17.25, 27.25], [19.25, 27.25], [16.25, 28.75], [18.25, 28.75], [20.25, 25.75], [22.25, 25.75], [24.25, 25.75], [21.25, 27.25], [23.25, 27.25], [20.25, 28.75], [22.25, 28.75], [24.25, 28.75], [25.25, 27.25], [26.25, 25.75], [28.25, 25.75], [27.25, 27.25], [-13.75, 25.75], [-11.75, 25.75], [-12.75, 27.25], [-10.75, 27.25], [-9.75, 25.75], [-7.75, 25.75], [-5.75, 25.75], [-8.75, 27.25], [-6.75, 27.25], [-7.75, 28.75], [-5.75, 28.75], [-3.75, 25.75], [-1.75, 25.75], [-4.75, 27.25], [-2.75, 27.25], [-0.75, 27.25], [-3.75, 28.75], [-1.75, 28.75], [1.25, 30.25], [3.25, 30.25], [0.25, 31.75], [2.25, 31.75], [4.25, 31.75], [3.25, 33.25], [1.25, 33.25], [5.25, 30.25], [7.25, 30.25], [9.25, 30.25], [6.25, 31.75], [8.25, 31.75], [5.25, 33.25], [7.25, 33.25], [9.25, 33.25], [11.25, 30.25], [23.25, 30.25], [25.25, 30.25], [-2.75, 30.25], [-0.75, 30.25], [-1.75, 31.75], [-4.75, 30.25]]}}, {"type": "Feature", "properties": {"Name": "Saharan Peoples", "FromYear": -2400.1, "ToYear": -2250.1, "Area": 7018690.6, "DotCount": 230, "Kind": "hull"}, "geometry": {"type": "Polygon", "coordinates": [[[-13.75, 25.75], [-12.75, 27.25], [-7.75, 28.75], [-4.75, 30.25], [-1.75, 31.75], [1.25, 33.25], [3.25, 33.25], [5.25, 33.25], [7.25, 33.25], [9.25, 33.25], [11.25, 30.25], [16.25, 28.75], [18.25, 28.75], [23.25, 30.25], [25.25, 30.25], [26.25, 28.75], [27.25, 27.25], [28.25, 25.75], [29.25, 24.25], [29.25, 21.25], [29.25, 18.25], [29.25, 15.25], [27.25, 15.25], [25.25, 15.25], [23.25, 15.25], [21.25, 15.25], [19.25, 15.25], [17.25, 15.25], [15.25, 15.25], [13.25, 15.25], [11.25, 15.25], [9.25, 15.25], [7.25, 15.25], [5.25, 15.25], [3.25, 15.25], [-0.75, 18.25], [-2.75, 18.25], [-6.75, 15.25], [-10.75, 18.25], [-12.75, 18.25], [-14.75, 18.25], [-15.75, 19.75], [-16.6, 21.25], [-15.75, 22.75], [-14.75, 24.25], [-13.75, 25.75]]]}}, {"type": "Feature", "properties": {"Name": "Saharan Peoples", "FromYear": -2250.1, "ToYear": -524.5, "Area": 6787733.5, "DotCount": 222, "Kind": "hull"}, "geometry": {"type": "Polygon", "coordinates": [[[-13.75, 25.75], [-12.75, 27.25], [-7.75, 28.75], [-4.75, 30.25], [-1.75, 31.75], [1.25, 33.25], [3.25, 33.25], [5.25, 33.25], [7.25, 33.25], [9.25, 33.25], [11.25, 30.25], [16.25, 28.75], [18.25, 28.75], [23.25, 30.25], [25.25, 30.25], [26.25, 28.75], [27.25, 27.25], [28.25, 25.75], [29.25, 24.25], [29.25, 21.25], [29.25, 18.25], [29.25, 15.25], [27.25, 15.25], [25.25, 15.25], [23.25, 15.25], [21.25, 15.25], [16.25, 16.75], [14.25, 16.75], [12.25, 16.75], [10.25, 16.75], [8.25, 16.75], [3.25, 15.25], [-0.75, 18.25], [-2.75, 18.25], [-6.75, 15.25], [-10.75, 18.25], [-12.75, 18.25], [-14.75, 18.25], [-15.75, 19.75], [-16.6, 21.25], [-15.75, 22.75], [-14.75, 24.25], [-13.75, 25.75]]]}}, {"type": "Feature", "properties": {"Name": "Saharan Peoples", "FromYear": -524.5, "ToYear": -515.5, "Area": 6787619.3, "DotCount": 221, "Kind": "hull"}, "geometry": {"type": "Polygon", "coordinates": [[[-13.75, 25.75], [-12.75, 27.25], [-7.75, 28.75], [-4.75, 30.25], [-1.75, 31.75], [1.25, 33.25], [3.25, 33.25], [5.25, 33.25], [7.25, 33.25], [9.25, 33.25], [11.25, 30.25], [16.25, 28.75], [18.25, 28.75], [23.25, 30.25], [25.25, 30.25], [27.25, 27.25], [28.25, 25.75], [29.25, 24.25], [29.25, 21.25], [29.25, 18.25], [29.25, 15.25], [27.25, 15.25], [25.25, 15.25], [23.25, 15.25], [21.25, 15.25], [16.25, 16.75], [14.25, 16.75], [12.25, 16.75], [10.25, 16.75], [8.25, 16.75], [3.25, 15.25], [-0.75, 18.25], [-2.75, 18.25], [-6.75, 15.25], [-10.75, 18.25], [-12.75, 18.25], [-14.75, 18.25], [-15.75, 19.75], [-16.6, 21.25], [-15.75, 22.75], [-14.75, 24.25], [-13.75, 25.75]]]}}, {"type": "Feature", "properties": {"Name": "Saharan Peoples", "FromYear": -515.5, "ToYear": -440.5, "Area": 6755147.4, "DotCount": 220, "Kind": "hull"}, "geometry": {"type": "Polygon", "coordinates": [[[-13.75, 25.75], [-12.75, 27.25], [-7.75, 28.75], [-4.75, 30.25], [-1.75, 31.75], [1.25, 33.25], [3.25, 33.25], [5.25, 33.25], [7.25, 33.25], [9.25, 33.25], [11.25, 30.25], [16.25, 28.75], [18.25, 28.75], [23.25, 30.25], [27.25, 27.25], [28.25, 25.75], [29.25, 24.25], [29.25, 21.25], [29.25, 18.25], [29.25, 15.25], [27.25, 15.25], [25.25, 15.25], [23.25, 15.25], [21.25, 15.25], [16.25, 16.75], [14.25, 16.75], [12.25, 16.75], [10.25, 16.75], [8.25, 16.75], [3.25, 15.25], [-0.75, 18.25], [-2.75, 18.25], [-6.75, 15.25], [-10.75, 18.25], [-12.75, 18.25], [-14.75, 18.25], [-15.75, 19.75], [-16.6, 21.25], [-15.75, 22.75], [-14.75, 24.25], [-13.75, 25.75]]]}}, {"type": "Feature", "properties": {"Name": "Saharan Peoples", "FromYear": -440.5, "ToYear": -402.5, "Area": 6787619.3, "DotCount": 221, "Kind": "hull"}, "geometry": {"type": "Polygon", "coordinates": [[[-13.75, 25.75], [-12.75, 27.25], [-7.75, 28.75], [-4.75, 30.25], [-1.75, 31.75], [1.25, 33.25], [3.25, 33.25], [5.25, 33.25], [7.25, 33.25], [9.25, 33.25], [11.25, 30.25], [16.25, 28.75], [18.25, 28.75], [23.25, 30.25], [25.25, 30.25], [27.25, 27.25], [28.25, 25.75], [29.25, 24.25], [29.25, 21.25], [29.25, 18.25], [29.25, 15.25], [27.25, 15.25], [25.25, 15.25], [23.25, 15.25], [21.25, 15.25], [16.25, 16.75], [14.25, 16.75], [12.25, 16.75], [10.25, 16.75], [8.25, 16.75], [3.25, 15.25], [-0.75, 18.25], [-2.75, 18.25], [-6.75, 15.25], [-10.75, 18.25], [-12.75, 18.25], [-14.75, 18.25], [-15.75, 19.75], [-16.6, 21.25], [-15.75, 22.75], [-14.75, 24.25], [-13.75, 25.75]]]}}, {"type": "Feature", "properties": {"Name": "Saharan Peoples", "FromYear": -402.5, "ToYear": -331.6, "Area": 6787733.5, "DotCount": 222, "Kind": "hull"}, "geometry": {"type": "Polygon", "coordinates": [[[-13.75, 25.75], [-12.75, 27.25], [-7.75, 28.75], [-4.75, 30.25], [-1.75, 31.75], [1.25, 33.25], [3.25, 33.25], [5.25, 33.25], [7.25, 33.25], [9.25, 33.25], [11.25, 30.25], [16.25, 28.75], [18.25, 28.75], [23.25, 30.25], [25.25, 30.25], [26.25, 28.75], [27.25, 27.25], [28.25, 25.75], [29.25, 24.25], [29.25, 21.25], [29.25, 18.25], [29.25, 15.25], [27.25, 15.25], [25.25, 15.25], [23.25, 15.25], [21.25, 15.25], [16.25, 16.75], [14.25, 16.75], [12.25, 16.75], [10.25, 16.75], [8.25, 16.75], [3.25, 15.25], [-0.75, 18.25], [-2.75, 18.25], [-6.75, 15.25], [-10.75, 18.25], [-12.75, 18.25], [-14.75, 18.25], [-15.75, 19.75], [-16.6, 21.25], [-15.75, 22.75], [-14.75, 24.25], [-13.75, 25.75]]]}}, {"type": "Feature", "properties": {"Name": "Saharan Peoples", "FromYear": -331.6, "ToYear": -1.0, "Area": 6787619.3, "DotCount": 221, "Kind": "hull"}, "geometry": {"type": "Polygon", "coordinates": [[[-13.75, 25.75], [-12.75, 27.25], [-7.75, 28.75], [-4.75, 30.25], [-1.75, 31.75], [1.25, 33.25], [3.25, 33.25], [5.25, 33.25], [7.25, 33.25], [9.25, 33.25], [11.25, 30.25], [16.25, 28.75], [18.25, 28.75], [23.25, 30.25], [25.25, 30.25], [27.25, 27.25], [28.25, 25.75], [29.25, 24.25], [29.25, 21.25], [29.25, 18.25], [29.25, 15.25], [27.25, 15.25], [25.25, 15.25], [23.25, 15.25], [21.25, 15.25], [16.25, 16.75], [14.25, 16.75], [12.25, 16.75], [10.25, 16.75], [8.25, 16.75], [3.25, 15.25], [-0.75, 18.25], [-2.75, 18.25], [-6.75, 15.25], [-10.75, 18.25], [-12.75, 18.25], [-14.75, 18.25], [-15.75, 19.75], [-16.6, 21.25], [-15.75, 22.75], [-14.75, 24.25], [-13.75, 25.75]]]}}, {"type": "Feature", "properties": {"Index": 1, "Name": "Picentes", "FromYear": -800.1, "ToYear": -515.5, "Area": 755.4, "Type": "TRIBAL_AREA", "References": "", "MemberOf": "", "ColorR": 224, "ColorG": 176, "ColorB": 160, "Generated": "2026-08-17", "SourceRun": "Picentes", "OverlapNote": "Contained in border: Piceni", "Kind": "dots"}, "geometry": {"type": "MultiPoint", "coordinates": [[13.519, 43.1331], [12.9758, 43.6564], [12.2776, 44.0227]]}}, {"type": "Feature", "properties": {"Index": 2, "Name": "Picentes", "FromYear": -515.5, "ToYear": -438.5, "Area": 0.0, "Type": "TRIBAL_AREA", "References": "", "MemberOf": "", "ColorR": 224, "ColorG": 176, "ColorB": 160, "Generated": "2026-08-17", "SourceRun": "Picentes", "OverlapNote": "Contained in border: Piceni", "Kind": "dots"}, "geometry": {"type": "MultiPoint", "coordinates": [[13.519, 43.1331], [12.9758, 43.6564]]}}, {"type": "Feature", "properties": {"Name": "Picentes", "FromYear": -800.1, "ToYear": -515.5, "Area": 755.4, "DotCount": 3, "Kind": "hull"}, "geometry": {"type": "Polygon", "coordinates": [[[12.2776, 44.0227], [12.9758, 43.6564], [13.519, 43.1331], [12.2776, 44.0227]]]}}, {"type": "Feature", "properties": {"Index": 1, "Name": "Illyrians", "FromYear": -1725.1, "ToYear": -1170.5, "Area": 0.0, "Type": "TRIBAL_AREA", "References": "", "MemberOf": "", "ColorR": 176, "ColorG": 128, "ColorB": 64, "Generated": "2026-08-17", "SourceRun": "Illyrians", "OverlapNote": "Contained in border: Illyrioi", "Kind": "dots"}, "geometry": {"type": "MultiPoint", "coordinates": [[19.7185, 41.2161], [13.94, 45.3]]}}, {"type": "Feature", "properties": {"Index": 2, "Name": "Illyrians", "FromYear": -1170.5, "ToYear": -850.1, "Area": 0.0, "Type": "TRIBAL_AREA", "References": "", "MemberOf": "", "ColorR": 176, "ColorG": 128, "ColorB": 64, "Generated": "2026-08-17", "SourceRun": "Illyrians", "OverlapNote": "Contained in border: Illyrioi", "Kind": "dots"}, "geometry": {"type": "Point", "coordinates": [13.94, 45.3]}}, {"type": "Feature", "properties": {"Index": 3, "Name": "Illyrians", "FromYear": -850.1, "ToYear": -800.1, "Area": 32585.4, "Type": "TRIBAL_AREA", "References": "", "MemberOf": "", "ColorR": 176, "ColorG": 128, "ColorB": 64, "Generated": "2026-08-17", "SourceRun": "Illyrians", "OverlapNote": "Contained in border: Illyrioi", "Kind": "dots"}, "geometry": {"type": "MultiPoint", "coordinates": [[16.9017, 40.7916], [17.631, 40.543], [16.3276, 41.153], [15.5672, 41.6942], [14.7138, 41.7988], [13.969, 42.3221], [13.519, 43.1331], [18.2103, 40.2073], [13.94, 45.3]]}}, {"type": "Feature", "properties": {"Index": 4, "Name": "Illyrians", "FromYear": -800.1, "ToYear": -1.0, "Area": 0.0, "Type": "TRIBAL_AREA", "References": "", "MemberOf": "", "ColorR": 176, "ColorG": 128, "ColorB": 64, "Generated": "2026-08-17", "SourceRun": "Illyrians", "OverlapNote": "Contained in border: Illyrioi", "Kind": "dots"}, "geometry": {"type": "Point", "coordinates": [13.94, 45.3]}}, {"type": "Feature", "properties": {"Index": 5, "Name": "Grabaei", "FromYear": -500.1, "ToYear": -429.1, "Area": 0.0, "Type": "TRIBAL_AREA", "References": "", "MemberOf": "(Illyrians)", "ColorR": 176, "ColorG": 128, "ColorB": 68, "Generated": "2026-08-17", "SourceRun": "Illyrians", "OverlapNote": "", "Kind": "dots"}, "geometry": {"type": "Point", "coordinates": [19.6117, 42.3608]}}, {"type": "Feature", "properties": {"Name": "Illyrians", "FromYear": -850.1, "ToYear": -800.1, "Area": 32585.4, "DotCount": 9, "Kind": "hull"}, "geometry": {"type": "Polygon", "coordinates": [[[13.519, 43.1331], [13.94, 45.3], [15.5672, 41.6942], [16.3276, 41.153], [17.631, 40.543], [18.2103, 40.2073], [16.9017, 40.7916], [14.7138, 41.7988], [13.969, 42.3221], [13.519, 43.1331]]]}}]}